[{"OBJECT_NAME":"IRIDIUM 121","OBJECT_ID":"2017-039K","EPOCH":"2026-03-09T22:57:50.967360","MEAN_MOTION":14.34217682,"ECCENTRICITY":0.00021772,"INCLINATION":86.3973,"RA_OF_ASC_NODE":35.125,"ARG_OF_PERICENTER":87.8477,"MEAN_ANOMALY":272.2968,"EPHEMERIS_TYPE":0,"CLASSIFICATION_TYPE":"U","NORAD_CAT_ID":42812,"ELEMENT_SET_NO":999,"REV_AT_EPOCH":45560,"BSTAR":5.919812e-6,"MEAN_MOTION_DOT":3.6e-7,"MEAN_MOTION_DDOT":0},{"OBJECT_NAME":"COSMOS 1331","OBJECT_ID":"1982-001A","EPOCH":"2026-03-09T21:21:46.034496","MEAN_MOTION":14.37696783,"ECCENTRICITY":0.00245515,"INCLINATION":74.0499,"RA_OF_ASC_NODE":338.5644,"ARG_OF_PERICENTER":306.5469,"MEAN_ANOMALY":53.3424,"EPHEMERIS_TYPE":0,"CLASSIFICATION_TYPE":"U","NORAD_CAT_ID":13027,"ELEMENT_SET_NO":999,"REV_AT_EPOCH":31330,"BSTAR":7.9055569e-5,"MEAN_MOTION_DOT":2.12e-6,"MEAN_MOTION_DDOT":0}]
